{
    "links": {
        "self": "http://www.neowsapp.com/rest/v1/neo/3609839?api_key=iIulBulltgU6a56xZRHN4H3l9WmuAYTsLGpBGhQ2"
    },
    "id": "3609839",
    "neo_reference_id": "3609839",
    "name": "(2012 TL20)",
    "designation": "2012 TL20",
    "nasa_jpl_url": "http://ssd.jpl.nasa.gov/sbdb.cgi?sstr=3609839",
    "absolute_magnitude_h": 24.5,
    "estimated_diameter": {
        "kilometers": {
            "estimated_diameter_min": 0.0334622374,
            "estimated_diameter_max": 0.0748238376
        },
        "meters": {
            "estimated_diameter_min": 33.4622374455,
            "estimated_diameter_max": 74.8238376074
        },
        "miles": {
            "estimated_diameter_min": 0.0207924639,
            "estimated_diameter_max": 0.0464933628
        },
        "feet": {
            "estimated_diameter_min": 109.7842471007,
            "estimated_diameter_max": 245.4850393757
        }
    },
    "is_potentially_hazardous_asteroid": false,
    "close_approach_data": [
        {
            "close_approach_date": "2010-08-15",
            "close_approach_date_full": "2010-Aug-15 01:50",
            "epoch_date_close_approach": 1281837000000,
            "relative_velocity": {
                "kilometers_per_second": "11.3865881936",
                "kilometers_per_hour": "40991.7174971206",
                "miles_per_hour": "25470.6591303636"
            },
            "miss_distance": {
                "astronomical": "0.3549169394",
                "lunar": "138.0626894266",
                "kilometers": "53094818.161159078",
                "miles": "32991590.1649801564"
            },
            "orbiting_body": "Earth"
        },
        {
            "close_approach_date": "2012-09-24",
            "close_approach_date_full": "2012-Sep-24 11:34",
            "epoch_date_close_approach": 1348486440000,
            "relative_velocity": {
                "kilometers_per_second": "5.2332229241",
                "kilometers_per_hour": "18839.6025269274",
                "miles_per_hour": "11706.1963590233"
            },
            "miss_distance": {
                "astronomical": "0.1070774748",
                "lunar": "41.6531376972",
                "kilometers": "16018562.155058676",
                "miles": "9953472.9744786888"
            },
            "orbiting_body": "Earth"
        },
        {
            "close_approach_date": "2014-10-11",
            "close_approach_date_full": "2014-Oct-11 13:22",
            "epoch_date_close_approach": 1413033720000,
            "relative_velocity": {
                "kilometers_per_second": "12.3331906434",
                "kilometers_per_hour": "44399.4863163642",
                "miles_per_hour": "27588.1141502986"
            },
            "miss_distance": {
                "astronomical": "0.320128988",
                "lunar": "124.530176332",
                "kilometers": "47890614.73005556",
                "miles": "29757848.103504328"
            },
            "orbiting_body": "Earth"
        }
    ],
    "orbital_data": {
        "orbit_id": "8",
        "orbit_determination_date": "2017-04-06 08:48:46",
        "first_observation_date": "2012-10-06",
        "last_observation_date": "2012-10-22",
        "data_arc_in_days": 16,
        "observations_used": 26,
        "orbit_uncertainty": "7",
        "minimum_orbit_intersection": ".105247",
        "jupiter_tisserand_invariant": "4.266",
        "epoch_osculation": "2459000.5",
        "eccentricity": ".329270198064658",
        "semi_major_axis": "1.614026615087353",
        "inclination": "7.72222252416167",
        "ascending_node_longitude": "26.76438518646292",
        "orbital_period": "748.9700730313904",
        "perihelion_distance": "1.082575751855911",
        "perihelion_argument": "322.1954256734649",
        "aphelion_distance": "2.145477478318795",
        "perihelion_time": "2459176.968638954726",
        "mean_anomaly": "275.1785734687975",
        "mean_motion": ".480660059677594",
        "equinox": "J2000",
        "orbit_class": {
            "orbit_class_type": "AMO",
            "orbit_class_description": "Near-Earth asteroid orbits similar to that of 1221 Amor",
            "orbit_class_range": "1.017 AU < q (perihelion) < 1.3 AU"
        }
    },
    "is_sentry_object": false
}